FENGYUN 1C DEB          
1 37462U 99025EJG 17339.74678902  .00004290  00000-0  33255-3 0  9999
2 37462  98.8785 319.2997 0169793  30.9947 330.1154 14.91328114486432
